[
  {
    "name": "PLEIADES NEO 3",
    "line1": "1 48268U 21034A   25340.65055154  .00000173  00000+0  28543-4 0  9999",
    "line2": "2 48268  97.8950  53.1788 0001318  95.4164 264.7200 14.81675652249148",
    "catNr": 48268
  },
  {
    "name": "PLEIADES NEO 4",
    "line1": "1 49070U 21073E   25340.61677449 -.00000139  00000+0 -11096-4 0  9996",
    "line2": "2 49070  97.8949  53.1411 0001297  97.0251 263.1109 14.81672576232855",
    "catNr": 49070
  }
]